NORAD_CAT_ID,OBJECT_NAME,OBJECT_TYPE,EPOCH,MEAN_MOTION,ECCENTRICITY,INCLINATION,RA_OF_ASC_NODE,ARG_OF_PERICENTER,MEAN_ANOMALY,BSTAR,MEAN_MOTION_DOT,MEAN_MOTION_DDOT,TLE_LINE0,TLE_LINE1,TLE_LINE2,SEMIMAJOR_AXIS,PERIOD,APOGEE,PERIGEE,DECAYED
53996.0,STARLINK-5131,PAYLOAD,2024-05-08 14:20:19,15.08837831,0.000136,53.2163,342.1198,110.4758,249.6381,0.00012428,1.69e-05,0.0,0 STARLINK-5131,1 53996U 22125AJ  24129.59744543  .00001690  00000-0  12428-3 0  9999,2 53996  53.2163 342.1198 0001360 110.4758 249.6381 15.08837831 88304,6917.887,95.438,540.693,538.811,0.0
53996.0,STARLINK-5131,PAYLOAD,2024-05-08 20:41:51,15.08846272,0.000135,53.2176,340.9319,97.6533,262.4613,0.0002538,3.754e-05,0.0,0 STARLINK-5131,1 53996U 22125AJ  24129.86240374  .00003754  00000-0  25380-3 0  9996,2 53996  53.2176 340.9319 0001350  97.6533 262.4613 15.08846272 88349,6917.861,95.437,540.66,538.792,0.0
53996.0,STARLINK-5131,PAYLOAD,2024-05-08 23:52:37,15.08850124,0.0001354,53.2177,340.3367,97.873,262.2416,0.00035659,5.393e-05,0.0,0 STARLINK-5131,1 53996U 22125AJ  24129.99488278  .00005393  00000-0  35659-3 0  9998,2 53996  53.2177 340.3367 0001354  97.8730 262.2416 15.08850124 88432,6917.849,95.437,540.651,538.778,0.0
53996.0,STARLINK-5131,PAYLOAD,2024-05-09 18:57:15,15.08843311,0.0001363,53.2177,336.7667,101.5401,258.5745,0.00027122,4.032e-05,0.0,0 STARLINK-5131,1 53996U 22125AJ  24130.78976645  .00004032  00000-0  27122-3 0  9992,2 53996  53.2177 336.7667 0001363 101.5401 258.5745 15.08843311 88558,6917.87,95.437,540.678,538.792,0.0
53996.0,STARLINK-5131,PAYLOAD,2024-05-10 06:04:57,15.08843018,0.0001279,53.2176,334.6852,104.5081,255.6053,0.00018839,2.712e-05,0.0,0 STARLINK-5131,1 53996U 22125AJ  24131.25344602  .00002712  00000-0  18839-3 0  9995,2 53996  53.2176 334.6852 0001279 104.5081 255.6053 15.08843018 88557,6917.871,95.437,540.621,538.851,0.0
53996.0,STARLINK-5131,PAYLOAD,2024-05-10 20:23:25,15.08849897,0.0001148,53.2174,332.0133,100.4312,259.681,0.00018988,2.736e-05,0.0,0 STARLINK-5131,1 53996U 22125AJ  24131.84960594  .00002736  00000-0  18988-3 0  9995,2 53996  53.2174 332.0133 0001148 100.4312 259.6810 15.08849897 88710,6917.85,95.437,540.509,538.921,0.0
53996.0,STARLINK-5131,PAYLOAD,2024-05-11 21:49:36,15.08793125,0.000163,53.2178,327.255,99.3133,260.8043,-0.0011181,-0.00018016,0.0,0 STARLINK-5131,1 53996U 22125AJ  24132.90945039 -.00018016  00000-0 -11181-2 0  9997,2 53996  53.2178 327.2550 0001630  99.3133 260.8043 15.08793125 88800,6918.024,95.441,541.016,538.761,0.0
53996.0,STARLINK-5131,PAYLOAD,2024-05-11 23:24:59,15.08803484,0.0001438,53.2176,326.9578,101.2753,258.8401,-0.000892,-0.00014442,0.0,0 STARLINK-5131,1 53996U 22125AJ  24132.97568705 -.00014442  00000-0 -89200-3 0  9992,2 53996  53.2176 326.9578 0001438 101.2753 258.8401 15.08803484 88884,6917.992,95.44,540.852,538.862,0.0
53996.0,STARLINK-5131,PAYLOAD,2024-05-12 05:46:35,15.08724548,0.0001929,53.2179,325.7685,105.3967,254.7239,-0.0021731,-0.00034599,0.0,0 STARLINK-5131,1 53996U 22125AJ  24133.24068972 -.00034599  00000-0 -21731-2 0  9993,2 53996  53.2179 325.7685 0001929 105.3967 254.7239 15.08724548 88922,6918.233,95.445,541.433,538.764,0.0
53996.0,STARLINK-5131,PAYLOAD,2024-05-12 20:05:03,15.08798363,0.0001284,53.2175,323.088,89.6973,270.4167,-6.98e-05,-1.397e-05,0.0,0 STARLINK-5131,1 53996U 22125AJ  24133.83684671 -.00001397  00000-0 -69800-4 0  9999,2 53996  53.2175 323.0880 0001284  89.6973 270.4167 15.08798363 89013,6918.008,95.44,540.761,538.984,0.0
53996.0,STARLINK-5131,PAYLOAD,2024-05-12 21:40:27,15.08790648,0.0001311,53.2168,322.7921,97.6908,262.4233,0.0004082,6.206e-05,0.0,0 STARLINK-5131,1 53996U 22125AJ  24133.90309334  .00006206  00000-0  40820-3 0  9999,2 53996  53.2168 322.7921 0001311  97.6908 262.4233 15.08790648 88950,6918.031,95.441,540.803,538.989,0.0
53996.0,STARLINK-5131,PAYLOAD,2024-05-13 11:58:56,15.08818496,0.0001053,53.2169,320.1148,97.3369,262.7742,0.0016581,0.00026184,0.0,0 STARLINK-5131,1 53996U 22125AJ  24134.49926446  .00026184  00000-0  16581-2 0  9996,2 53996  53.2169 320.1148 0001053  97.3369 262.7742 15.08818496 89114,6917.946,95.439,540.54,539.083,0.0
53996.0,STARLINK-5131,PAYLOAD,2024-05-13 21:31:14,15.08859222,0.000106,53.2158,318.3331,92.3275,267.7838,0.0016521,0.00026117,0.0,0 STARLINK-5131,1 53996U 22125AJ  24134.89669352  .00026117  00000-0  16521-2 0  9990,2 53996  53.2158 318.3331 0001060  92.3275 267.7838 15.08859222 89106,6917.822,95.436,540.42,538.953,0.0
53996.0,STARLINK-5131,PAYLOAD,2024-05-14 05:28:08,15.08880698,9.48e-05,53.215,316.8464,88.7644,271.3456,0.001146,0.00018018,0.0,0 STARLINK-5131,1 53996U 22125AJ  24135.22788113  .00018018  00000-0  11460-2 0  9993,2 53996  53.2150 316.8464 0000948  88.7644 271.3456 15.08880698 89154,6917.756,95.435,540.277,538.965,0.0
53996.0,STARLINK-5131,PAYLOAD,2024-05-14 18:11:12,15.08909593,9.83e-05,53.2149,314.4667,82.4983,277.6121,0.0011207,0.00017627,0.0,0 STARLINK-5131,1 53996U 22125AJ  24135.75777790  .00017627  00000-0  11207-2 0  9994,2 53996  53.2149 314.4667 0000983  82.4983 277.6121 15.08909593 89308,6917.668,95.433,540.213,538.853,0.0
53996.0,STARLINK-5131,PAYLOAD,2024-05-15 11:40:25,15.08873443,0.000323,53.2103,311.1932,97.5895,262.5464,0.00028863,4.312e-05,0.0,0 STARLINK-5131,1 53996U 22125AJ  24136.48640707  .00004312  00000-0  28863-3 0  9996,2 53996  53.2103 311.1932 0003230  97.5895 262.5464 15.08873443 89413,6917.778,95.435,541.878,537.409,0.0
53996.0,STARLINK-5131,PAYLOAD,2024-05-15 18:01:58,15.08853133,0.0001291,53.2156,310.0067,106.1458,253.9676,-0.00019958,-3.464e-05,0.0,0 STARLINK-5131,1 53996U 22125AJ  24136.75136621 -.00003464  00000-0 -19958-3 0  9995,2 53996  53.2156 310.0067 0001291 106.1458 253.9676 15.08853133 89452,6917.84,95.437,540.598,538.812,0.0
53996.0,STARLINK-5131,PAYLOAD,2024-05-16 21:03:32,15.08848292,6.3e-05,53.2181,304.9497,80.5016,279.6048,0.0011277,0.00017709,0.0,0 STARLINK-5131,1 53996U 22125AJ  24137.87745791  .00017709  00000-0  11277-2 0  9993,2 53996  53.2181 304.9497 0000630  80.5016 279.6048 15.08848292 89627,6917.855,95.437,540.156,539.284,0.0
53996.0,STARLINK-5131,PAYLOAD,2024-05-17 11:22:00,15.08845688,8.6e-05,53.2165,302.2746,75.8446,284.2641,0.00062828,9.727e-05,0.0,0 STARLINK-5131,1 53996U 22125AJ  24138.47361909  .00009727  00000-0  62828-3 0  9995,2 53996  53.2165 302.2746 0000860  75.8446 284.2641 15.08845688 89713,6917.863,95.437,540.323,539.133,0.0
53996.0,STARLINK-5131,PAYLOAD,2024-05-17 17:43:32,15.08869363,0.0001425,53.2168,301.0862,85.047,275.0684,0.0015052,0.00023768,0.0,0 STARLINK-5131,1 53996U 22125AJ  24138.73857363  .00023768  00000-0  15052-2 0  9995,2 53996  53.2168 301.0862 0001425  85.0470 275.0684 15.08869363 89755,6917.791,95.436,540.641,538.67,0.0
53996.0,STARLINK-5131,PAYLOAD,2024-05-18 11:12:47,15.08815646,4.69e-05,53.2133,297.8126,147.9412,212.1608,-0.0013397,-0.00021531,0.0,0 STARLINK-5131,1 53996U 22125AJ  24139.46721266 -.00021531  00000-0 -13397-2 0  9996,2 53996  53.2133 297.8126 0000469 147.9412 212.1608 15.08815646 89868,6917.955,95.439,540.144,539.495,0.0
53996.0,STARLINK-5131,PAYLOAD,2024-05-18 14:23:32,15.08867201,0.0001266,53.2167,297.2189,110.1233,249.9896,0.00045587,6.98e-05,0.0,0 STARLINK-5131,1 53996U 22125AJ  24139.59968251  .00006980  00000-0  45587-3 0  9993,2 53996  53.2167 297.2189 0001266 110.1233 249.9896 15.08867201 89813,6917.797,95.436,540.538,538.786,0.0
53996.0,STARLINK-5131,PAYLOAD,2024-05-18 17:34:18,15.08872991,9.96e-05,53.2139,296.6249,89.5629,270.5477,0.0019693,0.00031221,0.0,0 STARLINK-5131,1 53996U 22125AJ  24139.73216143  .00031221  00000-0  19693-2 0  9999,2 53996  53.2139 296.6249 0000996  89.5629 270.5477 15.08872991 89906,6917.78,95.435,540.334,538.956,0.0
53996.0,STARLINK-5131,PAYLOAD,2024-05-19 14:14:20,15.08807763,0.0001022,53.2138,292.7552,56.1949,303.914,0.0005732,8.838e-05,0.0,0 STARLINK-5131,1 53996U 22125AJ  24140.59329720  .00008838  00000-0  57320-3 0  9999,2 53996  53.2138 292.7552 0001022  56.1949 303.9140 15.08807763 89964,6917.979,95.44,540.551,539.137,0.0
53996.0,STARLINK-5131,PAYLOAD,2024-05-19 19:00:30,15.08815492,0.0001114,53.2163,291.8645,49.5662,310.5427,0.00016531,2.342e-05,0.0,0 STARLINK-5131,1 53996U 22125AJ  24140.79202066  .00002342  00000-0  16531-3 0  9997,2 53996  53.2163 291.8645 0001114  49.5662 310.5427 15.08815492 90068,6917.955,95.439,540.591,539.05,0.0
53996.0,STARLINK-5131,PAYLOAD,2024-05-20 18:51:17,15.08879838,0.0001199,53.2161,287.4077,58.1992,301.9116,0.0022521,0.00035776,0.0,0 STARLINK-5131,1 53996U 22125AJ  24141.78561835  .00035776  00000-0  22521-2 0  9991,2 53996  53.2161 287.4077 0001199  58.1992 301.9116 15.08879838 90211,6917.759,95.435,540.453,538.794,0.0
53996.0,STARLINK-5131,PAYLOAD,2024-05-21 13:55:55,15.08849523,0.0001422,53.2168,283.8373,43.4272,316.6832,0.0013552,0.00021351,0.0,0 STARLINK-5131,1 53996U 22125AJ  24142.58050215  .00021351  00000-0  13552-2 0  9993,2 53996  53.2168 283.8373 0001422  43.4272 316.6832 15.08849523 90265,6917.851,95.437,540.7,538.733,0.0
53996.0,STARLINK-5131,PAYLOAD,2024-05-21 17:06:41,15.08855663,0.0001137,53.2169,283.243,65.6043,294.5068,0.0015872,0.00025073,0.0,0 STARLINK-5131,1 53996U 22125AJ  24142.71298073  .00025073  00000-0  15872-2 0  9996,2 53996  53.2169 283.2430 0001137  65.6043 294.5068 15.08855663 90356,6917.833,95.437,540.484,538.911,0.0
53996.0,STARLINK-5131,PAYLOAD,2024-05-21 21:52:50,15.08869371,0.000104,53.2169,282.3516,62.7972,297.3126,0.0018619,0.00029492,0.0,0 STARLINK-5131,1 53996U 22125AJ  24142.91169719  .00029492  00000-0  18619-2 0  9993,2 53996  53.2169 282.3516 0001040  62.7972 297.3126 15.08869371 90316,6917.791,95.436,540.375,538.936,0.0
53996.0,STARLINK-5131,PAYLOAD,2024-05-23 12:02:06,15.08833684,0.0001279,53.2179,275.2153,89.1251,270.9887,0.00097097,0.00015196,0.0,0 STARLINK-5131,1 53996U 22125AJ  24144.50146347  .00015196  00000-0  97097-3 0  9996,2 53996  53.2179 275.2153 0001279  89.1251 270.9887 15.08833684 90625,6917.9,95.438,540.649,538.88,0.0
